1 20455U 63014FB  06312.20212264  .00177594  00000-0  26407-1 0  9994
2 20455 083.8514 026.8833 2948246 288.3240 041.9501 09.29606916358564
1 20455U 63014FB  06313.60071921  .00176452  00000-0  24021-1 0  9994
2 20455 083.8356 026.4386 2953129 286.3164 043.6045 09.30085886358691
1 20455U 63014FB  06314.13841767 +.00176216 +00000-0 +24252-1 0  9990
2 20455 083.8273 026.2660 2951268 285.5871 044.1402 09.30269999358748
1 20455U 63014FB  06320.04598787  .00289104  00000-0  37355-1 0  9997
2 20455 083.8145 024.3949 2938070 277.5453 066.4397 09.33736460359294
1 20455U 63014FB  06320.57684446  .00247779  00000-0  31562-1 0  9999
2 20455 083.8265 024.2331 2939004 276.8223 050.8087 09.33804463359344
1 20455U 63014FB  06322.18315333  .00289366  00000-0  36073-1 0  9994
2 20455 083.8543 023.7256 2935708 274.6203 053.5479 09.34752366359490
1 20455U 63014FB  06323.14586862  .00286985  00000-0  35603-1 0  9990
2 20455 083.8576 023.4242 2933311 273.2823 054.1051 09.35290342359584
1 20455U 63014FB  06324.10821347  .00291343  00000-0  36326-1 0  9994
2 20455 083.8576 023.1218 2929956 271.9483 055.3894 09.35854681359671
1 20455U 63014FB  06325.17677237  .00291619  00000-0  36334-1 0  9994
2 20455 083.8603 022.7852 2926863 270.4580 056.5588 09.36461272359772
1 20455U 63014FB  06326.13793273  .00288281  00000-0  38317-1 0  9994
2 20455 083.8805 022.4924 2918789 269.1597 057.7955 09.36993561359866
1 20455U 63014FB  06332.10586866  .00294002  00000-0  41598-1 0  9999
2 20455 083.8611 020.6013 2895876 260.7970 064.6852 09.40384339360422
1 20455U 63014FB  06364.42281872  .00233370  00000-0  23618-1 0  9992
2 20455 083.7411 009.8848 2791755 214.5420 205.2742 09.65893329363450
1 20455U 63014FB  07007.46440712  .00238985  00000-0  21201-1 0  9994
2 20455 083.7594 007.1378 2782997 203.2104 140.4279 09.69611916364239
1 20455U 63014FB  07011.69171497  .00175083  00000-0  18021-1 0  9990
2 20455 083.7577 005.7142 2764107 196.7568 147.0868 09.71050317364643
1 20455U 63014FB  07012.41441171  .00178994  00000-0  19659-1 0  9992
2 20455 083.7794 005.4647 2757413 195.4711 154.0557 09.71326436364718
1 20455U 63014FB  07013.13552319  .00181957  00000-0  21032-1 0  9990
2 20455 083.7665 005.2293 2751777 194.2258 156.1480 09.71601271364788
1 20455U 63014FB  07013.44452526  .00182796  00000-0  20615-1 0  9991
2 20455 083.7596 005.1239 2753212 193.8246 157.0346 09.71718250364819
1 20455U 63014FB  07014.37117959  .00181269  00000-0  23688-1 0  9999
2 20455 083.7826 004.7831 2739144 192.1962 159.1875 09.72036857364900
1 20455U 63014FB  07015.70932858  .00143085  00000-0  14675-1 0  9990
2 20455 083.7465 004.3278 2757896 190.9942 161.8704 09.72334989365031
1 20455U 63014FB  07016.42960681  .00152489  00000-0  12364-1 0  9996
2 20455 083.7612 004.0683 2774831 190.1510 163.5978 09.72589883365108
1 20455U 63014FB  07017.35531998  .00155071  00000-0  11013-1 0  9994
2 20455 083.7938 003.7232 2783086 188.9442 165.3179 09.72885874365197
1 20455U 63014FB  07018.38366378  .00170582  00000-0  16887-1 0  9994
2 20455 083.7718 003.4230 2755620 186.4202 168.7474 09.73317924365291
1 20455U 63014FB  07019.30900543  .00172037  00000-0  18964-1 0  9990
2 20455 083.7311 003.1249 2745248 184.8378 171.7904 09.73642445365389
1 20455U 63014FB  07020.33667895  .00181127  00000-0  19211-1 0  9991
2 20455 083.7302 002.7381 2746204 183.5913 174.8690 09.74065754365485
1 20455U 63014FB  07021.36361836  .00177574  00000-0  16951-1 0  9990
2 20455 083.7706 002.3615 2752922 182.8882 175.9830 09.74405191365582
1 20455U 63014FB  07022.39022556  .00163741  00000-0  14535-1 0  9994
2 20455 083.8085 001.9933 2757227 181.6263 177.3342 09.74680662365687
1 20455U 63014FB  07022.39024259  .00144390  00000-0  16388-1 0  9993
2 20455 083.7618 002.0192 2737956 180.7342 177.7196 09.74608408365681
1 20455U 63014FB  07023.41721251  .00139136  00000-0  16311-1 0  9991
2 20455 083.7537 001.6638 2733939 179.1381 181.3400 09.74867970365784
1 20455U 63014FB  07024.34102601  .00134801  00000-0  17498-1 0  9997
2 20455 083.7124 001.3728 2724145 177.3904 183.9171 09.75090043365876
1 20455U 63014FB  07027.31617335  .00117651  00000-0  13648-1 0  9999
2 20455 083.7311 000.3310 2730519 173.4275 190.3857 09.75717832366168
1 20455U 63014FB  07028.34189183  .00117049  00000-0  13678-1 0  9992
2 20455 083.7330 359.9732 2728689 171.8822 193.7479 09.75954729366261
1 20455U 63014FB  07029.36713767  .00121121  00000-0  14308-1 0  9993
2 20455 083.7365 359.6162 2726443 170.3560 196.3887 09.76213092366367
1 20455U 63014FB  07030.39207641  .00137382  00000-0  16999-1 0  9991
2 20455 083.7715 359.2473 2720640 168.6426 199.5417 09.76569886366461
1 20455U 63014FB  07034.28371011  .00190998  00000-0  23106-1 0  9996
2 20455 083.6956 357.9158 2713579 162.8584 214.9291 09.78287470366848
1 20455U 63014FB  07035.30460780  .00178487  00000-0  23937-1 0  9993
2 20455 083.7221 357.5653 2703175 161.1473 210.6867 09.78588077366940
1 20455U 63014FB  07038.37078331  .00143037  00000-0  16532-1 0  9996
2 20455 083.7365 356.4879 2712090 156.7120 216.1393 09.79356012367244
1 20455U 63014FB  07039.29090449  .00147553  00000-0  17256-1 0  9993
2 20455 083.7284 356.1682 2709529 155.3245 220.9968 09.79660372367337
1 20455U 63014FB  07040.92469667  .00184149  00000-0  22211-1 0  9996
2 20455 083.7051 355.6140 2703194 152.8374 225.4270 09.80365026367492
1 20455U 63014FB  07041.33266926  .00181013  00000-0  21366-1 0  9992
2 20455 083.7089 355.4751 2704391 152.3500 225.1972 09.80491078367533
1 20455U 63014FB  07041.84290914 +.00181455 +00000-0 +21389-1 0  9997
2 20455 083.7119 355.2887 2703559 151.5979 226.3904 09.80675511367580
1 20455U 63014FB  07043.27103628  .00156074  00000-0  18893-1 0  9996
2 20455 083.7022 354.8100 2699643 149.3677 228.7293 09.81013082367727
1 20455U 63014FB  07045.31066375  .00148565  00000-0  17018-1 0  9994
2 20455 083.7623 354.0193 2701486 146.3895 233.7011 09.81568920367928
1 20455U 63014FB  07046.33007046  .00147556  00000-0  17343-1 0  9997
2 20455 083.6981 353.7229 2697715 144.8036 236.7615 09.81882114368028
1 20455U 63014FB  07046.83949170  .00171746  00000-0  20065-1 0  9998
2 20455 083.7200 353.5339 2697299 143.9333 237.8418 09.82151005368077
1 20455U 63014FB  07046.83950889 +.00149181 +00000-0 +17363-1 0  9992
2 20455 083.7091 353.5360 2697733 144.0377 237.6637 09.82038908368079
1 20455U 63014FB  07046.83950889  .00149181  00000-0  17363-1 0  9992
2 20455 083.7091 353.5360 2697733 144.0377 237.6637 09.82038908368079
1 20455U 63014FB  07048.26567812  .00156254  00000-0  16961-1 0  9993
2 20455 083.7325 353.0165 2701014 142.1423 241.2161 09.82533607368211
1 20455U 63014FB  07048.87643666  .00170268  00000-0  19401-1 0  9995
2 20455 083.7495 352.7980 2695532 140.9695 242.1334 09.82806657368270
1 20455U 63014FB  07049.28363236  .00158281  00000-0  17543-1 0  9999
2 20455 083.7382 352.6598 2697583 140.4741 242.5859 09.82864812368312
1 20455U 63014FB  07049.79267219  .00159637  00000-0  17595-1 0  9992
2 20455 083.7359 352.4846 2697169 139.7286 243.8884 09.83035430368369
1 20455U 63014FB  07050.30155120  .00159411  00000-0  17496-1 0  9998
2 20455 083.7381 352.3091 2696724 138.9769 244.8663 09.83191413368414
1 20455U 63014FB  07050.81036985  .00150960  00000-0  16831-1 0  9993
2 20455 083.7196 352.1421 2694807 137.9715 245.9941 09.83313977368460
1 20455U 63014FB  07051.31919859  .00145600  00000-0  16588-1 0  9993
2 20455 083.7126 351.9658 2692402 137.1715 247.2264 09.83433960368517
1 20455U 63014FB  07051.82792375 +.00145657 +00000-0 +16630-1 0  9991
2 20455 083.7051 351.7907 2691467 136.3940 248.4335 09.83580572368569
1 20455U 63014FB  07055.79295772  .00127311  00000-0  13910-1 0  9995
2 20455 083.7086 350.3998 2690449 130.4949 254.1424 09.84508433368958
1 20455U 63014FB  07056.30170043  .00129164  00000-0  14004-1 0  9999
2 20455 083.7088 350.2231 2690372 129.7346 257.3937 09.84647045369000
1 20455U 63014FB  07056.80973171  .00132599  00000-0  14189-1 0  9997
2 20455 083.7173 350.0534 2690676 129.1002 258.3745 09.84799217369051
1 20455U 63014FB  07057.21605238  .00139685  00000-0  14331-1 0  9991
2 20455 083.7402 349.9239 2693316 128.3256 259.3361 09.84955585369092
1 20455U 63014FB  07058.84095936  .00173180  00000-0  19610-1 0  9992
2 20455 083.6845 349.3051 2681671 125.5497 263.5844 09.85615801369251
1 20455U 63014FB  07059.24670673  .00177858  00000-0  19640-1 0  9993
2 20455 083.6856 349.1633 2682892 124.8237 263.6064 09.85786009369295
1 20455U 63014FB  07060.76823920  .00294025  00000-0  31376-1 0  9993
2 20455 083.7075 348.6451 2681170 122.6737 266.2079 09.86781577369448
1 20455U 63014FB  07061.78288477  .00247603  00000-0  26386-1 0  9993
2 20455 083.7172 348.2784 2678459 121.4040 271.1349 09.87195439369544
1 20455U 63014FB  07062.18726238  .00253263  00000-0  26925-1 0  9998
2 20455 083.7056 348.1354 2677487 120.6873 268.5601 09.87421239369587
1 20455U 63014FB  07062.79510603 +.00254229 +00000-0 +26956-1 0  9999
2 20455 083.7071 347.9172 2676142 119.7451 269.6161 09.87727406369642
1 20455U 63014FB  07065.32577291  .00218376  00000-0  21899-1 0  9991
2 20455 083.7034 347.0256 2676239 115.7524 271.4263 09.88626961369895
1 20455U 63014FB  07067.24805471  .00303419  00000-0  29937-1 0  9992
2 20455 083.7051 346.3447 2671729 112.7233 277.7020 09.89890214370090
1 20455U 63014FB  07067.75322222  .00341822  00000-0  33160-1 0  9999
2 20455 083.7043 346.1645 2670872 112.0093 278.4879 09.90327117370149
1 20455U 63014FB  07068.25942873  .00313101  00000-0  30773-1 0  9991
2 20455 083.6917 346.0068 2667863 110.9168 283.3720 09.90541988370180
1 20455U 63014FB  07069.16711844  .00312635  00000-0  30973-1 0  9997
2 20455 083.6888 345.6528 2664459 109.6695 280.8058 09.91082845370270
1 20455U 63014FB  07072.19260284  .00318608  00000-0  28441-1 0  9994
2 20455 083.7010 344.5760 2664605 105.1242 282.9414 09.92702675370579
1 20455U 63014FB  07074.71048894  .00353531  00000-0  31068-1 0  9998
2 20455 083.7051 343.6744 2657426 101.2462 289.6201 09.94523092370833
